[{"OBJECT_NAME":"LEO 1 (LEO VANTAGE 1)","OBJECT_ID":"2018-004C","EPOCH":"2026-03-09T16:57:06.140448","MEAN_MOTION":14.67184901,"ECCENTRICITY":0.03529424,"INCLINATION":99.2469,"RA_OF_ASC_NODE":334.0284,"ARG_OF_PERICENTER":24.854,"MEAN_ANOMALY":336.9207,"EPHEMERIS_TYPE":0,"CLASSIFICATION_TYPE":"U","NORAD_CAT_ID":43113,"ELEMENT_SET_NO":999,"REV_AT_EPOCH":42289,"BSTAR":0.000396029,"MEAN_MOTION_DOT":5.709e-5,"MEAN_MOTION_DDOT":0},{"OBJECT_NAME":"STARLINK-31339","OBJECT_ID":"2024-031S","EPOCH":"2026-03-09T21:42:06.481152","MEAN_MOTION":15.30192556,"ECCENTRICITY":0.00010509,"INCLINATION":53.1601,"RA_OF_ASC_NODE":295.8638,"ARG_OF_PERICENTER":87.9228,"MEAN_ANOMALY":272.1893,"EPHEMERIS_TYPE":0,"CLASSIFICATION_TYPE":"U","NORAD_CAT_ID":58981,"ELEMENT_SET_NO":999,"REV_AT_EPOCH":11654,"BSTAR":3.0566457e-5,"MEAN_MOTION_DOT":5.46e-6,"MEAN_MOTION_DDOT":0}]
